CCSDS_OMM_VERS = 2.0
CREATION_DATE  = 
ORIGINATOR     = 

OBJECT_NAME    = 2026-023G
OBJECT_ID      = 2026-023G
CENTER_NAME    = EARTH
REF_FRAME      = TEME
TIME_SYSTEM    = UTC
MEAN_ELEMENT_THEORY = SGP/SGP4

EPOCH          = 2026-02-19T04:30:20.359296
MEAN_MOTION    = 15.22661815
ECCENTRICITY   = .0022731
INCLINATION    = 96.6286
RA_OF_ASC_NODE = 127.7723
ARG_OF_PERICENTER = 181.7118
MEAN_ANOMALY   = 178.4047

EPHEMERIS_TYPE = 0
CLASSIFICATION_TYPE = U
NORAD_CAT_ID   = 67680
ELEMENT_SET_NO = 999
REV_AT_EPOCH   = 202
BSTAR          = .46285E-3
MEAN_MOTION_DOT = .10798E-3
MEAN_MOTION_DDOT = 0

CCSDS_OMM_VERS = 2.0
CREATION_DATE  = 
ORIGINATOR     = 

OBJECT_NAME    = 2026-023H
OBJECT_ID      = 2026-023H
CENTER_NAME    = EARTH
REF_FRAME      = TEME
TIME_SYSTEM    = UTC
MEAN_ELEMENT_THEORY = SGP/SGP4

EPOCH          = 2026-02-18T01:41:17.154816
MEAN_MOTION    = 15.22627375
ECCENTRICITY   = .00225878
INCLINATION    = 96.6435
RA_OF_ASC_NODE = 126.7896
ARG_OF_PERICENTER = 185.3318
MEAN_ANOMALY   = 174.7684

EPHEMERIS_TYPE = 0
CLASSIFICATION_TYPE = U
NORAD_CAT_ID   = 67681
ELEMENT_SET_NO = 999
REV_AT_EPOCH   = 185
BSTAR          = .3261934E-5
MEAN_MOTION_DOT = .18E-6
MEAN_MOTION_DDOT = 0

CCSDS_OMM_VERS = 2.0
CREATION_DATE  = 
ORIGINATOR     = 

OBJECT_NAME    = 2026-023J
OBJECT_ID      = 2026-023J
CENTER_NAME    = EARTH
REF_FRAME      = TEME
TIME_SYSTEM    = UTC
MEAN_ELEMENT_THEORY = SGP/SGP4

EPOCH          = 2026-02-19T04:29:31.426656
MEAN_MOTION    = 15.22728416
ECCENTRICITY   = .0022929
INCLINATION    = 96.6387
RA_OF_ASC_NODE = 127.7894
ARG_OF_PERICENTER = 177.9520
MEAN_ANOMALY   = 182.1817

EPHEMERIS_TYPE = 0
CLASSIFICATION_TYPE = U
NORAD_CAT_ID   = 67682
ELEMENT_SET_NO = 999
REV_AT_EPOCH   = 202
BSTAR          = .52243E-3
MEAN_MOTION_DOT = .12224E-3
MEAN_MOTION_DDOT = 0

CCSDS_OMM_VERS = 2.0
CREATION_DATE  = 
ORIGINATOR     = 

OBJECT_NAME    = ISS OBJECT XZ
OBJECT_ID      = 1998-067XZ
CENTER_NAME    = EARTH
REF_FRAME      = TEME
TIME_SYSTEM    = UTC
MEAN_ELEMENT_THEORY = SGP/SGP4

EPOCH          = 2026-02-18T12:38:46.736448
MEAN_MOTION    = 15.50249343
ECCENTRICITY   = .0010346
INCLINATION    = 51.6321
RA_OF_ASC_NODE = 166.9465
ARG_OF_PERICENTER = 123.4884
MEAN_ANOMALY   = 236.7095

EPHEMERIS_TYPE = 0
CLASSIFICATION_TYPE = U
NORAD_CAT_ID   = 67683
ELEMENT_SET_NO = 999
REV_AT_EPOCH   = 181
BSTAR          = .60893E-3
MEAN_MOTION_DOT = .34822E-3
MEAN_MOTION_DDOT = 0

CCSDS_OMM_VERS = 2.0
CREATION_DATE  = 
ORIGINATOR     = 

OBJECT_NAME    = GXIBA-1
OBJECT_ID      = 1998-067YA
CENTER_NAME    = EARTH
REF_FRAME      = TEME
TIME_SYSTEM    = UTC
MEAN_ELEMENT_THEORY = SGP/SGP4

EPOCH          = 2026-02-18T14:03:04.874112
MEAN_MOTION    = 15.51346875
ECCENTRICITY   = .0011884
INCLINATION    = 51.6317
RA_OF_ASC_NODE = 166.5880
ARG_OF_PERICENTER = 116.3562
MEAN_ANOMALY   = 243.8649

EPHEMERIS_TYPE = 0
CLASSIFICATION_TYPE = U
NORAD_CAT_ID   = 67684
ELEMENT_SET_NO = 999
REV_AT_EPOCH   = 182
BSTAR          = .10466E-2
MEAN_MOTION_DOT = .62858E-3
MEAN_MOTION_DDOT = 0

CCSDS_OMM_VERS = 2.0
CREATION_DATE  = 
ORIGINATOR     = 

OBJECT_NAME    = CORAL
OBJECT_ID      = 1998-067YB
CENTER_NAME    = EARTH
REF_FRAME      = TEME
TIME_SYSTEM    = UTC
MEAN_ELEMENT_THEORY = SGP/SGP4

EPOCH          = 2026-02-18T14:09:59.270112
MEAN_MOTION    = 15.50440945
ECCENTRICITY   = .0012245
INCLINATION    = 51.6318
RA_OF_ASC_NODE = 166.6193
ARG_OF_PERICENTER = 119.6221
MEAN_ANOMALY   = 240.5989

EPHEMERIS_TYPE = 0
CLASSIFICATION_TYPE = U
NORAD_CAT_ID   = 67685
ELEMENT_SET_NO = 999
REV_AT_EPOCH   = 182
BSTAR          = .6882E-3
MEAN_MOTION_DOT = .39745E-3
MEAN_MOTION_DDOT = 0

CCSDS_OMM_VERS = 2.0
CREATION_DATE  = 
ORIGINATOR     = 

OBJECT_NAME    = ISS OBJECT YC
OBJECT_ID      = 1998-067YC
CENTER_NAME    = EARTH
REF_FRAME      = TEME
TIME_SYSTEM    = UTC
MEAN_ELEMENT_THEORY = SGP/SGP4

EPOCH          = 2026-02-18T12:35:37.355424
MEAN_MOTION    = 15.50655569
ECCENTRICITY   = .0007806
INCLINATION    = 51.6328
RA_OF_ASC_NODE = 166.9334
ARG_OF_PERICENTER = 91.8250
MEAN_ANOMALY   = 268.3633

EPHEMERIS_TYPE = 0
CLASSIFICATION_TYPE = U
NORAD_CAT_ID   = 67686
ELEMENT_SET_NO = 999
REV_AT_EPOCH   = 181
BSTAR          = .75108E-3
MEAN_MOTION_DOT = .437E-3
MEAN_MOTION_DDOT = 0

CCSDS_OMM_VERS = 2.0
CREATION_DATE  = 
ORIGINATOR     = 

OBJECT_NAME    = LEOPARD
OBJECT_ID      = 1998-067YD
CENTER_NAME    = EARTH
REF_FRAME      = TEME
TIME_SYSTEM    = UTC
MEAN_ELEMENT_THEORY = SGP/SGP4

EPOCH          = 2026-02-19T04:06:01.708704
MEAN_MOTION    = 15.50407074
ECCENTRICITY   = .0007804
INCLINATION    = 51.6327
RA_OF_ASC_NODE = 163.7477
ARG_OF_PERICENTER = 96.1006
MEAN_ANOMALY   = 264.0872

EPHEMERIS_TYPE = 0
CLASSIFICATION_TYPE = U
NORAD_CAT_ID   = 67687
ELEMENT_SET_NO = 999
REV_AT_EPOCH   = 183
BSTAR          = .62661E-3
MEAN_MOTION_DOT = .36023E-3
MEAN_MOTION_DDOT = 0

CCSDS_OMM_VERS = 2.0
CREATION_DATE  = 
ORIGINATOR     = 

OBJECT_NAME    = ISS OBJECT YE
OBJECT_ID      = 1998-067YE
CENTER_NAME    = EARTH
REF_FRAME      = TEME
TIME_SYSTEM    = UTC
MEAN_ELEMENT_THEORY = SGP/SGP4

EPOCH          = 2026-02-17T14:56:52.657152
MEAN_MOTION    = 15.50474672
ECCENTRICITY   = .00077405
INCLINATION    = 51.6318
RA_OF_ASC_NODE = 171.4087
ARG_OF_PERICENTER = 89.9843
MEAN_ANOMALY   = 270.2033

EPHEMERIS_TYPE = 0
CLASSIFICATION_TYPE = U
NORAD_CAT_ID   = 67688
ELEMENT_SET_NO = 999
REV_AT_EPOCH   = 159
BSTAR          = .74973135E-3
MEAN_MOTION_DOT = .43336E-3
MEAN_MOTION_DDOT = 0

CCSDS_OMM_VERS = 2.0
CREATION_DATE  = 
ORIGINATOR     = 

OBJECT_NAME    = PRC TEST SPACECRAFT 4
OBJECT_ID      = 2026-024A
CENTER_NAME    = EARTH
REF_FRAME      = TEME
TIME_SYSTEM    = UTC
MEAN_ELEMENT_THEORY = SGP/SGP4

EPOCH          = 2026-02-19T03:18:46.630080
MEAN_MOTION    = 14.91674423
ECCENTRICITY   = .000619
INCLINATION    = 49.9851
RA_OF_ASC_NODE = 109.8580
ARG_OF_PERICENTER = 288.6507
MEAN_ANOMALY   = 71.3762

EPHEMERIS_TYPE = 0
CLASSIFICATION_TYPE = U
NORAD_CAT_ID   = 67689
ELEMENT_SET_NO = 999
REV_AT_EPOCH   = 181
BSTAR          = .20856E-4
MEAN_MOTION_DOT = -.32E-6
MEAN_MOTION_DDOT = 0

CCSDS_OMM_VERS = 2.0
CREATION_DATE  = 
ORIGINATOR     = 

OBJECT_NAME    = CZ-2F R/B
OBJECT_ID      = 2026-024B
CENTER_NAME    = EARTH
REF_FRAME      = TEME
TIME_SYSTEM    = UTC
MEAN_ELEMENT_THEORY = SGP/SGP4

EPOCH          = 2026-02-19T03:17:45.387168
MEAN_MOTION    = 15.33533390
ECCENTRICITY   = .0176587
INCLINATION    = 49.9873
RA_OF_ASC_NODE = 107.5938
ARG_OF_PERICENTER = 197.9919
MEAN_ANOMALY   = 161.4738

EPHEMERIS_TYPE = 0
CLASSIFICATION_TYPE = U
NORAD_CAT_ID   = 67690
ELEMENT_SET_NO = 999
REV_AT_EPOCH   = 184
BSTAR          = .33649E-3
MEAN_MOTION_DOT = .18028E-3
MEAN_MOTION_DDOT = 0

CCSDS_OMM_VERS = 2.0
CREATION_DATE  = 
ORIGINATOR     = 

OBJECT_NAME    = CZ-2F DEB
OBJECT_ID      = 2026-024C
CENTER_NAME    = EARTH
REF_FRAME      = TEME
TIME_SYSTEM    = UTC
MEAN_ELEMENT_THEORY = SGP/SGP4

EPOCH          = 2026-02-19T03:51:54.485856
MEAN_MOTION    = 15.71826120
ECCENTRICITY   = .0234811
INCLINATION    = 49.9070
RA_OF_ASC_NODE = 104.6286
ARG_OF_PERICENTER = 206.5186
MEAN_ANOMALY   = 152.3618

EPHEMERIS_TYPE = 0
CLASSIFICATION_TYPE = U
NORAD_CAT_ID   = 67691
ELEMENT_SET_NO = 999
REV_AT_EPOCH   = 187
BSTAR          = .84627E-3
MEAN_MOTION_DOT = .703678E-2
MEAN_MOTION_DDOT = .10371E-4

