2026-023G               
1 67680U 26023G   26050.18773564  .00010798  00000+0  46285-3 0  9996
2 67680  96.6286 127.7723 0022731 181.7118 178.4047 15.22661815  2029
2026-023H               
1 67681U 26023H   26049.07033744  .00000018  00000+0  32619-5 0  9994
2 67681  96.6435 126.7896 0022587 185.3318 174.7684 15.22627375  1856
2026-023J               
1 67682U 26023J   26050.18716929  .00012224  00000+0  52243-3 0  9997
2 67682  96.6387 127.7894 0022929 177.9520 182.1817 15.22728416  2023
ISS OBJECT XZ           
1 67683U 98067XZ  26049.52692982  .00034822  00000+0  60893-3 0  9991
2 67683  51.6321 166.9465 0010346 123.4884 236.7095 15.50249343  1819
GXIBA-1                 
1 67684U 98067YA  26049.58547308  .00062858  00000+0  10466-2 0  9999
2 67684  51.6317 166.5880 0011884 116.3562 243.8649 15.51346875  1828
CORAL                   
1 67685U 98067YB  26049.59026933  .00039745  00000+0  68820-3 0  9994
2 67685  51.6318 166.6193 0012245 119.6221 240.5989 15.50440945  1821
ISS OBJECT YC           
1 67686U 98067YC  26049.52473791  .00043700  00000+0  75108-3 0  9999
2 67686  51.6328 166.9334 0007806  91.8250 268.3633 15.50655569  1816
LEOPARD                 
1 67687U 98067YD  26050.17085311  .00036023  00000+0  62661-3 0  9990
2 67687  51.6327 163.7477 0007804  96.1006 264.0872 15.50407074  1830
ISS OBJECT YE           
1 67688U 98067YE  26048.62283168  .00043336  00000+0  74973-3 0  9992
2 67688  51.6318 171.4087 0007740  89.9843 270.2033 15.50474672  1591
PRC TEST SPACECRAFT 4   
1 67689U 26024A   26050.13803970 -.00000032  00000+0  20856-4 0  9994
2 67689  49.9851 109.8580 0006190 288.6507  71.3762 14.91674423  1814
CZ-2F R/B               
1 67690U 26024B   26050.13733087  .00018028  00000+0  33649-3 0  9993
2 67690  49.9873 107.5938 0176587 197.9919 161.4738 15.33533390  1840
CZ-2F DEB               
1 67691U 26024C   26050.16104729  .00703678  10371-4  84627-3 0  9993
2 67691  49.9070 104.6286 0234811 206.5186 152.3618 15.71826120  1879
